{
  "type": "FeatureCollection",
  "features": [
    {
      "type": "Feature",
      "properties": {
        "norad_id": 33835,
        "name": "COSMOS 2251 DEB",
        "group": "cosmos-2251-debris",
        "lat": -49.25552769502593,
        "lon": 55.76938167946703,
        "alt_km": 729.9130974133877,
        "timestamp": "2025-12-26T07:29:18.847220+00:00",
        "meta_object_name": "COSMOS 2251 DEB",
        "meta_object_id": "1993-036CC",
        "meta_epoch": "2025-12-25T15:59:34.374912",
        "meta_mean_motion": 14.62370337,
        "meta_eccentricity": 0.0053708,
        "meta_inclination": 74.0572,
        "meta_ra_of_asc_node": 76.383,
        "meta_arg_of_pericenter": 126.0837,
        "meta_mean_anomaly": 24.3645,
        "meta_ephemeris_type": 0,
        "meta_classification_type": "U",
        "meta_norad_cat_id": 33835,
        "meta_element_set_no": 999,
        "meta_rev_at_epoch": 88978,
        "meta_bstar": 0.00092914,
        "meta_mean_motion_dot": 4.768e-05,
        "meta_mean_motion_ddot": 0,
        "tle_line1": "1 33835U 93036CC  25359.66637008  .00004768  00000+0  92914-3 0  9995",
        "tle_line2": "2 33835  74.0572  76.3830 0053708 126.0837  24.3645 14.62370337889786"
      },
      "geometry": {
        "type": "Point",
        "coordinates": [
          55.76938167946703,
          -49.25552769502593
        ]
      }
    },
    {
      "type": "Feature",
      "properties": {
        "norad_id": 33836,
        "name": "COSMOS 2251 DEB",
        "group": "cosmos-2251-debris",
        "lat": 69.87586259736915,
        "lon": 0.6029552186885706,
        "alt_km": 607.7933386800923,
        "timestamp": "2025-12-26T07:29:18.847231+00:00",
        "meta_object_name": "COSMOS 2251 DEB",
        "meta_object_id": "1993-036CD",
        "meta_epoch": "2025-12-25T16:41:26.318400",
        "meta_mean_motion": 14.79832586,
        "meta_eccentricity": 0.00229305,
        "meta_inclination": 73.9958,
        "meta_ra_of_asc_node": 233.3824,
        "meta_arg_of_pericenter": 81.6202,
        "meta_mean_anomaly": 337.2002,
        "meta_ephemeris_type": 0,
        "meta_classification_type": "U",
        "meta_norad_cat_id": 33836,
        "meta_element_set_no": 999,
        "meta_rev_at_epoch": 64280,
        "meta_bstar": 0.0011289366,
        "meta_mean_motion_dot": 8.521e-05,
        "meta_mean_motion_ddot": 0,
        "tle_line1": "1 33836U 93036CD  25359.69544350  .00008521  00000+0  11289-2 0  9992",
        "tle_line2": "2 33836  73.9958 233.3824 0022930  81.6202 337.2002 14.79832586642806"
      },
      "geometry": {
        "type": "Point",
        "coordinates": [
          0.6029552186885706,
          69.87586259736915
        ]
      }
    },
    {
      "type": "Feature",
      "properties": {
        "norad_id": 33837,
        "name": "COSMOS 2251 DEB",
        "group": "cosmos-2251-debris",
        "lat": 68.54801294795715,
        "lon": 163.19041442879893,
        "alt_km": 737.1168570810214,
        "timestamp": "2025-12-26T07:29:18.847243+00:00",
        "meta_object_name": "COSMOS 2251 DEB",
        "meta_object_id": "1993-036CE",
        "meta_epoch": "2025-12-25T12:48:03.042720",
        "meta_mean_motion": 14.50727377,
        "meta_eccentricity": 0.0035872,
        "meta_inclination": 74.0123,
        "meta_ra_of_asc_node": 31.5108,
        "meta_arg_of_pericenter": 251.2088,
        "meta_mean_anomaly": 108.518,
        "meta_ephemeris_type": 0,
        "meta_classification_type": "U",
        "meta_norad_cat_id": 33837,
        "meta_element_set_no": 999,
        "meta_rev_at_epoch": 88981,
        "meta_bstar": 0.00025624,
        "meta_mean_motion_dot": 9.87e-06,
        "meta_mean_motion_ddot": 0,
        "tle_line1": "1 33837U 93036CE  25359.53336855  .00000987  00000+0  25624-3 0  9992",
        "tle_line2": "2 33837  74.0123  31.5108 0035872 251.2088 108.5180 14.50727377889812"
      },
      "geometry": {
        "type": "Point",
        "coordinates": [
          163.19041442879893,
          68.54801294795715
        ]
      }
    },
    {
      "type": "Feature",
      "properties": {
        "norad_id": 33838,
        "name": "COSMOS 2251 DEB",
        "group": "cosmos-2251-debris",
        "lat": -41.23291750623226,
        "lon": -41.07436846482253,
        "alt_km": 718.8578172702018,
        "timestamp": "2025-12-26T07:29:18.847253+00:00",
        "meta_object_name": "COSMOS 2251 DEB",
        "meta_object_id": "1993-036CF",
        "meta_epoch": "2025-12-25T19:25:45.372288",
        "meta_mean_motion": 14.48403087,
        "meta_eccentricity": 0.00274806,
        "meta_inclination": 74.0365,
        "meta_ra_of_asc_node": 125.3369,
        "meta_arg_of_pericenter": 245.478,
        "meta_mean_anomaly": 238.8832,
        "meta_ephemeris_type": 0,
        "meta_classification_type": "U",
        "meta_norad_cat_id": 33838,
        "meta_element_set_no": 999,
        "meta_rev_at_epoch": 88758,
        "meta_bstar": 0.00045471121,
        "meta_mean_motion_dot": 1.684e-05,
        "meta_mean_motion_ddot": 0,
        "tle_line1": "1 33838U 93036CF  25359.80955292  .00001684  00000+0  45471-3 0  9992",
        "tle_line2": "2 33838  74.0365 125.3369 0027480 245.4780 238.8832 14.48403087887581"
      },
      "geometry": {
        "type": "Point",
        "coordinates": [
          -41.07436846482253,
          -41.23291750623226
        ]
      }
    },
    {
      "type": "Feature",
      "properties": {
        "norad_id": 33839,
        "name": "COSMOS 2251 DEB",
        "group": "cosmos-2251-debris",
        "lat": -31.147409337817518,
        "lon": 10.361942769494817,
        "alt_km": 670.3996859771669,
        "timestamp": "2025-12-26T07:29:18.847263+00:00",
        "meta_object_name": "COSMOS 2251 DEB",
        "meta_object_id": "1993-036CG",
        "meta_epoch": "2025-12-25T12:37:08.860800",
        "meta_mean_motion": 14.64450648,
        "meta_eccentricity": 0.0085374,
        "meta_inclination": 74.0373,
        "meta_ra_of_asc_node": 181.9107,
        "meta_arg_of_pericenter": 291.0826,
        "meta_mean_anomaly": 99.0176,
        "meta_ephemeris_type": 0,
        "meta_classification_type": "U",
        "meta_norad_cat_id": 33839,
        "meta_element_set_no": 999,
        "meta_rev_at_epoch": 89767,
        "meta_bstar": 0.00022045,
        "meta_mean_motion_dot": 1.196e-05,
        "meta_mean_motion_ddot": 0,
        "tle_line1": "1 33839U 93036CG  25359.52579700  .00001196  00000+0  22045-3 0  9998",
        "tle_line2": "2 33839  74.0373 181.9107 0085374 291.0826  99.0176 14.64450648897675"
      },
      "geometry": {
        "type": "Point",
        "coordinates": [
          10.361942769494817,
          -31.147409337817518
        ]
      }
    },
    {
      "type": "Feature",
      "properties": {
        "norad_id": 33841,
        "name": "COSMOS 2251 DEB",
        "group": "cosmos-2251-debris",
        "lat": 73.82659616168964,
        "lon": -26.22775806203101,
        "alt_km": 764.7803302234652,
        "timestamp": "2025-12-26T07:29:18.847273+00:00",
        "meta_object_name": "COSMOS 2251 DEB",
        "meta_object_id": "1993-036CJ",
        "meta_epoch": "2025-12-25T19:45:59.556672",
        "meta_mean_motion": 14.37878424,
        "meta_eccentricity": 0.00210489,
        "meta_inclination": 74.0373,
        "meta_ra_of_asc_node": 253.953,
        "meta_arg_of_pericenter": 331.9844,
        "meta_mean_anomaly": 108.0202,
        "meta_ephemeris_type": 0,
        "meta_classification_type": "U",
        "meta_norad_cat_id": 33841,
        "meta_element_set_no": 999,
        "meta_rev_at_epoch": 88302,
        "meta_bstar": 0.00021086639,
        "meta_mean_motion_dot": 6.11e-06,
        "meta_mean_motion_ddot": 0,
        "tle_line1": "1 33841U 93036CJ  25359.82360598  .00000611  00000+0  21087-3 0  9993",
        "tle_line2": "2 33841  74.0373 253.9530 0021048 331.9844 108.0202 14.37878424883021"
      },
      "geometry": {
        "type": "Point",
        "coordinates": [
          -26.22775806203101,
          73.82659616168964
        ]
      }
    },
    {
      "type": "Feature",
      "properties": {
        "norad_id": 33842,
        "name": "COSMOS 2251 DEB",
        "group": "cosmos-2251-debris",
        "lat": -36.080328542042295,
        "lon": 26.50251342222008,
        "alt_km": 750.2496253070876,
        "timestamp": "2025-12-26T07:29:18.847283+00:00",
        "meta_object_name": "COSMOS 2251 DEB",
        "meta_object_id": "1993-036CK",
        "meta_epoch": "2025-12-25T22:09:25.799328",
        "meta_mean_motion": 14.42721361,
        "meta_eccentricity": 0.00476031,
        "meta_inclination": 74.0315,
        "meta_ra_of_asc_node": 195.1808,
        "meta_arg_of_pericenter": 299.9078,
        "meta_mean_anomaly": 59.7354,
        "meta_ephemeris_type": 0,
        "meta_classification_type": "U",
        "meta_norad_cat_id": 33842,
        "meta_element_set_no": 999,
        "meta_rev_at_epoch": 88527,
        "meta_bstar": 0.00025366521,
        "meta_mean_motion_dot": 8.29e-06,
        "meta_mean_motion_ddot": 0,
        "tle_line1": "1 33842U 93036CK  25359.92321527  .00000829  00000+0  25367-3 0  9990",
        "tle_line2": "2 33842  74.0315 195.1808 0047603 299.9078  59.7354 14.42721361885272"
      },
      "geometry": {
        "type": "Point",
        "coordinates": [
          26.50251342222008,
          -36.080328542042295
        ]
      }
    }
  ]
}